LANDSAT 4               
1 13367U 82072A   08219.29450621  .00000109  00000-0  13533-4 0  7614
2 13367  98.2039 110.6725 0016192 308.9776  51.0004 15.02087552397244
TDRS 1                  
1 13969U 83026B   08219.24609008 -.00000306  00000-0  10000-3 0  6863
2 13969  13.0941  11.6369 0022913 223.8233 119.4602  1.00269713 65838
LANDSAT 5               
1 14780U 84021A   08219.75389178  .00000017  00000-0  13814-4 0  6360
2 14780  98.1452 285.2794 0006878   7.0239 353.1041 14.57145101299598
ERBS                    
1 15354U 84108B   08217.50870188 -.00000289  00000-0  35434-6 0  9012
2 15354  56.9888  22.4753 0016700 188.2730 171.7879 15.15557976304042
TDRS 3                  
1 19548U 88091B   08218.20017647 -.00000201  00000-0  10000-3 0  1012
2 19548  11.2231  43.0124 0015353 308.6837 119.2471  1.00269395 59975
TDRS 4                  
1 19883U 89021B   08218.64010718 -.00000290  00000-0  10000-3 0  3984
2 19883   9.7957  55.3637 0003838  81.4074   2.3224  1.00267894243552
HST                     
1 20580U 90037B   08219.76471762  .00000267  00000-0  78087-5 0  1941
2 20580  28.4697 353.3330 0003866 198.8395 161.2052 15.00397323802582
TDRS 5                  
1 21639U 91054B   08219.55386358  .00000085  00000-0  10000-3 0  2713
2 21639   9.1259  59.2939 0003132  73.5886 210.8495  1.00263912 62306
UARS                    
1 21701U 91063B   08219.51915097  .00001498  00000-0  28895-4 0  4327
2 21701  56.9766 301.6012 0076462 279.7749  79.4682 15.52321336930318
TOPEX/POSEIDON          
1 22076U 92052A   08219.83870141 -.00000038  00000-0  10000-3 0  2244
2 22076  66.0366   3.6581 0007765 266.8991  93.1135 12.80943264747981
TDRS 6                  
1 22314U 93003B   08216.31541579  .00000068  00000-0  10000-3 0  3294
2 22314   8.4521  62.5225 0002679  31.6314 157.8829  1.00276388 56992
TDRS 7                  
1 23613U 95035B   08218.62345416  .00000112  00000-0  10000-3 0  3584
2 23613  10.3494  51.6180 0002290  73.0015 263.7131  1.00264388 47824
XTE                     
1 23757U 95074A   08218.81602248  .00000784  00000-0  11970-4 0  6717
2 23757  22.9798 121.9007 0007711   5.9092 354.1521 15.26833051697506
TRMM                    
1 25063U 97074A   08218.57389029  .00001366  00000-0  19927-4 0  8385
2 25063  34.9664 266.0227 0001114 277.2578  82.8019 15.55731962610908
ETS 7                   
1 25064U 97074B   08219.18607855  .00000481  00000-0  20330-4 0  5951
2 25064  34.9594 220.0574 0003510 328.9284  31.1224 15.24837674592891
ISS (ZARYA)             
1 25544U 98067A   08219.48846065  .00007390  00000-0  57732-4 0  9998
2 25544  51.6418 117.9333 0010245  38.7460 324.4574 15.72839857556453
LANDSAT 7               
1 25682U 99020A   08219.79033666 -.00000031  00000-0  32199-5 0  7232
2 25682  98.1897 286.0637 0001615  90.7368 269.4001 14.57118501495299
FUSE 1                  
1 25791U 99035A   08219.70234871  .00000289  00000-0  32841-4 0  2446
2 25791  24.9841  95.7898 0010870 208.6412 151.3503 14.41773963480969
TERRA                   
1 25994U 99068A   08219.81013917  .00000050  00000-0  21146-4 0  8342
2 25994  98.2083 293.2535 0000810  80.8446 279.2834 14.57107118459377
TDRS 8                  
1 26388U 00034A   08218.67221733 -.00000226  00000-0  10000-3 0  7751
2 26388   0.7870 142.4949 0004558  10.8791 132.0923  1.00275117 29760
EO 1                    
1 26619U 00075A   08219.78429484 -.00001930  00000-0 -37759-3 0  2095
2 26619  98.1454 285.6468 0008789 203.4575 156.6163 14.61767284410339
TIMED                   
1 26998U 01055B   08218.65108053 -.00000052  00000-0 -18836-5 0   881
2 26998  74.0718 254.0166 0000361  64.5838 295.5388 14.84012557360715
TDRS 9                  
1 27389U 02011A   08218.66961398 -.00000284  00000-0  10000-3 0  2576
2 27389   3.0721 245.2685 0004053 244.2982   3.6338  1.00262125 25019
AQUA                    
1 27424U 02022A   08219.48676119  .00000054  00000-0  22098-4 0  9115
2 27424  98.2319 159.4724 0001245  67.6817 292.4514 14.57095019332930
TDRS 10                 
1 27566U 02055A   08218.92807285 -.00000269  00000-0  00000+0 0  9760
2 27566   1.8670 278.7482 0002613 212.4331 116.9605  1.00270095 20842
SORCE                   
1 27651U 03004A   08219.32696006  .00000015  00000-0  17671-4 0  6731
2 27651  39.9965 250.3109 0026662 317.6531  42.2205 14.82090424299562
GALEX                   
1 27783U 03017A   08218.85043854  .00000200  00000-0  19583-4 0  4610
2 27783  28.9990  18.0016 0004030 236.8832 123.1384 14.59692610281669
GP-B                    
1 28230U 04014A   08218.56920634  .00000147  00000-0  19159-4 0  2880
2 28230  89.9557 159.8171 0002606 101.2474 258.9034 14.75927871231227
AURA                    
1 28376U 04026A   08219.08050379 -.00000002  00000-0  97573-5 0  2767
2 28376  98.2303 161.2296 0001244  54.2765 305.8560 14.57090163215922
SWIFT                   
1 28485U 04047A   08219.29445767  .00000512  00000-0  10187-4 0   727
2 28485  20.5556 203.7163 0014428 104.0869 256.1181 14.92423773202562
THEMIS A                
1 30580U 07004A   08216.37426072 -.00000322  00000-0  00000+0 0  2928
2 30580  10.0519 282.6238 7580786  53.2540 354.2827  1.12606866  4972
THEMIS B                
1 30581U 07004B   08219.20833333 -.00002237  00000-0  00000-0 0  1899
2 30581  13.9517 127.5464 8972239 189.8896 350.6359  0.25535273  5269
THEMIS C                
1 30582U 07004C   08219.16666667 -.00001009  00000-0  00000-0 0  2852
2 30582   0.9358 246.5031 8613979  76.5297 356.4058  0.51183300  3358
THEMIS D                
1 30797U 07004D   08219.37500000 -.00000349  00000-0  00000+0 0  3677
2 30797   4.8285 280.5556 7540764  56.9417   8.2335  1.00277964  4585
THEMIS E                
1 30798U 07004E   08219.37500000 -.00000372  00000-0  00000+0 0  3775
2 30798   5.3552 279.6320 7542047  57.9243 343.8452  1.00275906  4729
C/NOFS                  
1 32765U 08017A   08218.95421176  .00001906  00000-0  51601-4 0   919
2 32765  13.0094 154.5996 0316310 133.8443 228.8383 14.80415026 16519
